<?xml version='1.0' encoding='utf-8'?>
<kml xmlns="http://www.opengis.net/kml/2.2"><Document><Style id="default_style"><IconStyle><Icon><href>https://raw.githubusercontent.com/adrienhoff/Icons/main/Hazard.png</href></Icon></IconStyle><LabelStyle><scale>1.0</scale></LabelStyle></Style><StyleMap id="default"><Pair><key>normal</key><styleUrl>#default_style</styleUrl></Pair><Pair><key>highlight</key><styleUrl>#default_style</styleUrl></Pair></StyleMap><Style id="Hazard_Tree_style"><IconStyle><Icon><href>https://raw.githubusercontent.com/adrienhoff/Icons/main/HazardTree.png</href></Icon></IconStyle><LabelStyle><scale>1.0</scale></LabelStyle></Style><StyleMap id="Hazard_Tree"><Pair><key>normal</key><styleUrl>#Hazard_Tree_style</styleUrl></Pair><Pair><key>highlight</key><styleUrl>#Hazard_Tree_style</styleUrl></Pair></StyleMap><Style id="Hazard_style"><IconStyle><Icon><href>https://raw.githubusercontent.com/adrienhoff/Icons/main/Hazard.png</href></Icon></IconStyle><LabelStyle><scale>1.0</scale></LabelStyle></Style><StyleMap id="Hazard"><Pair><key>normal</key><styleUrl>#Hazard_style</styleUrl></Pair><Pair><key>highlight</key><styleUrl>#Hazard_style</styleUrl></Pair></StyleMap><Style id="Landing/Log_Deck_style"><IconStyle><Icon><href>https://raw.githubusercontent.com/adrienhoff/Icons/main/Landing%20or%20Log%20Deck.png</href></Icon></IconStyle><LabelStyle><scale>1.0</scale></LabelStyle></Style><StyleMap id="Landing/Log_Deck"><Pair><key>normal</key><styleUrl>#Landing/Log_Deck_style</styleUrl></Pair><Pair><key>highlight</key><styleUrl>#Landing/Log_Deck_style</styleUrl></Pair></StyleMap><Style id="Missed_Tree_style"><IconStyle><Icon><href>https://raw.githubusercontent.com/adrienhoff/Icons/main/Hazard%20Tree.png</href></Icon></IconStyle><LabelStyle><scale>1.0</scale></LabelStyle></Style><StyleMap id="Missed_Tree"><Pair><key>normal</key><styleUrl>#Missed_Tree_style</styleUrl></Pair><Pair><key>highlight</key><styleUrl>#Missed_Tree_style</styleUrl></Pair></StyleMap><Style id="Photo_style"><IconStyle><Icon><href>https://raw.githubusercontent.com/adrienhoff/Icons/main/photo.png</href></Icon></IconStyle><LabelStyle><scale>1.0</scale></LabelStyle></Style><StyleMap id="Photo"><Pair><key>normal</key><styleUrl>#Photo_style</styleUrl></Pair><Pair><key>highlight</key><styleUrl>#Photo_style</styleUrl></Pair></StyleMap><Folder><name>Mitigation Points</name><Placemark><name>Missed Tree</name><visibility>1</visibility><styleUrl>#Missed_Tree</styleUrl><description>OBJECTID: 3
Class: Missed Tree</description><Point><coordinates>-105.31770254116552,39.617427674713625,0</coordinates></Point></Placemark><Placemark><name>Missed Tree</name><visibility>1</visibility><styleUrl>#Missed_Tree</styleUrl><description>OBJECTID: 4
Class: Missed Tree</description><Point><coordinates>-105.31774015182984,39.61740446191796,0</coordinates></Point></Placemark><Placemark><name>Missed Tree</name><visibility>1</visibility><styleUrl>#Missed_Tree</styleUrl><description>OBJECTID: 5
Class: Missed Tree</description><Point><coordinates>-105.31767043986882,39.617360339246886,0</coordinates></Point></Placemark><Placemark><name>Missed Tree</name><visibility>1</visibility><styleUrl>#Missed_Tree</styleUrl><description>OBJECTID: 6
Class: Missed Tree</description><Point><coordinates>-105.31765384439228,39.61730739297331,0</coordinates></Point></Placemark><Placemark><name>Missed Tree</name><visibility>1</visibility><styleUrl>#Missed_Tree</styleUrl><description>OBJECTID: 7
Class: Missed Tree</description><Point><coordinates>-105.31774601243875,39.617222507791,0</coordinates></Point></Placemark><Placemark><name>Missed Tree</name><visibility>1</visibility><styleUrl>#Missed_Tree</styleUrl><description>OBJECTID: 8
Class: Missed Tree</description><Point><coordinates>-105.31790445639025,39.61612767834921,0</coordinates></Point></Placemark><Placemark><name /><visibility>1</visibility><styleUrl>#default</styleUrl><description>OBJECTID: 9
Notes: 40 piles</description><Point><coordinates>-105.4174745776782,39.68716881044194,0</coordinates></Point></Placemark><Placemark><name>Missed Tree</name><visibility>1</visibility><styleUrl>#Missed_Tree</styleUrl><description>OBJECTID: 10
Class: Missed Tree</description><Point><coordinates>-105.31967314755651,39.619408503332494,0</coordinates></Point></Placemark><Placemark><name>Hazard</name><visibility>1</visibility><styleUrl>#Hazard</styleUrl><description>OBJECTID: 11
Notes: Open mine 
Class: Hazard</description><Point><coordinates>-105.32192262604602,39.61810200839386,0</coordinates></Point></Placemark><Placemark><name>Hazard</name><visibility>1</visibility><styleUrl>#Hazard</styleUrl><description>OBJECTID: 12
Notes: Open Mine
Class: Hazard
ThreeSisters: No</description><Point><coordinates>-105.32097634342067,39.61796289962798,0</coordinates></Point></Placemark><Placemark><name>Landing/Log Deck</name><visibility>1</visibility><styleUrl>#Landing/Log_Deck</styleUrl><description>OBJECTID: 15
Notes: Pic 
Class: Landing/Log Deck
ThreeSisters: No
Image: https://services7.arcgis.com/wMhfqcPz0lVHG6lf/ArcGIS/rest/services/Mitigation_Editor_Layers_view/FeatureServer/0/15/attachments/2</description><Point><coordinates>-105.31936502361744,39.614132810200616,0</coordinates></Point></Placemark><Placemark><name>Photo</name><visibility>1</visibility><styleUrl>#Photo</styleUrl><description>OBJECTID: 16
Class: Photo
ThreeSisters: No
Image: https://services7.arcgis.com/wMhfqcPz0lVHG6lf/ArcGIS/rest/services/Mitigation_Editor_Layers_view/FeatureServer/0/16/attachments/3</description><Point><coordinates>-105.3193989637655,39.61415424282798,0</coordinates></Point></Placemark><Placemark><name>Photo</name><visibility>1</visibility><styleUrl>#Photo</styleUrl><description>OBJECTID: 17
Class: Photo
ThreeSisters: No
Image: https://services7.arcgis.com/wMhfqcPz0lVHG6lf/ArcGIS/rest/services/Mitigation_Editor_Layers_view/FeatureServer/0/17/attachments/4</description><Point><coordinates>-105.31943789225835,39.61412663666709,0</coordinates></Point></Placemark><Placemark><name>Photo</name><visibility>1</visibility><styleUrl>#Photo</styleUrl><description>OBJECTID: 18
Class: Photo
ThreeSisters: No
Image: https://services7.arcgis.com/wMhfqcPz0lVHG6lf/ArcGIS/rest/services/Mitigation_Editor_Layers_view/FeatureServer/0/18/attachments/5
Image: https://services7.arcgis.com/wMhfqcPz0lVHG6lf/ArcGIS/rest/services/Mitigation_Editor_Layers_view/FeatureServer/0/18/attachments/6</description><Point><coordinates>-105.31853317827445,39.613399635404754,0</coordinates></Point></Placemark><Placemark><name>Photo</name><visibility>1</visibility><styleUrl>#Photo</styleUrl><description>OBJECTID: 19
Class: Photo
ThreeSisters: No
Image: https://services7.arcgis.com/wMhfqcPz0lVHG6lf/ArcGIS/rest/services/Mitigation_Editor_Layers_view/FeatureServer/0/19/attachments/7
Image: https://services7.arcgis.com/wMhfqcPz0lVHG6lf/ArcGIS/rest/services/Mitigation_Editor_Layers_view/FeatureServer/0/19/attachments/8</description><Point><coordinates>-105.31785457114589,39.613102029387306,0</coordinates></Point></Placemark><Placemark><name>Photo</name><visibility>1</visibility><styleUrl>#Photo</styleUrl><description>OBJECTID: 20
Class: Photo
ThreeSisters: No
Image: https://services7.arcgis.com/wMhfqcPz0lVHG6lf/ArcGIS/rest/services/Mitigation_Editor_Layers_view/FeatureServer/0/20/attachments/9</description><Point><coordinates>-105.31781437692683,39.61319972221377,0</coordinates></Point></Placemark><Placemark><name>Photo</name><visibility>1</visibility><styleUrl>#Photo</styleUrl><description>OBJECTID: 21
Class: Photo
ThreeSisters: No
Image: https://services7.arcgis.com/wMhfqcPz0lVHG6lf/ArcGIS/rest/services/Mitigation_Editor_Layers_view/FeatureServer/0/21/attachments/10</description><Point><coordinates>-105.31782003810973,39.61300828586002,0</coordinates></Point></Placemark><Placemark><name>Photo</name><visibility>1</visibility><styleUrl>#Photo</styleUrl><description>OBJECTID: 22
Class: Photo
ThreeSisters: No
Image: https://services7.arcgis.com/wMhfqcPz0lVHG6lf/ArcGIS/rest/services/Mitigation_Editor_Layers_view/FeatureServer/0/22/attachments/11
Image: https://services7.arcgis.com/wMhfqcPz0lVHG6lf/ArcGIS/rest/services/Mitigation_Editor_Layers_view/FeatureServer/0/22/attachments/12</description><Point><coordinates>-105.3170348674323,39.613042630104964,0</coordinates></Point></Placemark><Placemark><name>Photo</name><visibility>1</visibility><styleUrl>#Photo</styleUrl><description>OBJECTID: 23
Class: Photo
ThreeSisters: No
Image: https://services7.arcgis.com/wMhfqcPz0lVHG6lf/ArcGIS/rest/services/Mitigation_Editor_Layers_view/FeatureServer/0/23/attachments/13
Image: https://services7.arcgis.com/wMhfqcPz0lVHG6lf/ArcGIS/rest/services/Mitigation_Editor_Layers_view/FeatureServer/0/23/attachments/14</description><Point><coordinates>-105.31696245154228,39.61312630589593,0</coordinates></Point></Placemark><Placemark><name>Photo</name><visibility>1</visibility><styleUrl>#Photo</styleUrl><description>OBJECTID: 24
Class: Photo
ThreeSisters: No
Image: https://services7.arcgis.com/wMhfqcPz0lVHG6lf/ArcGIS/rest/services/Mitigation_Editor_Layers_view/FeatureServer/0/24/attachments/15</description><Point><coordinates>-105.31714593064244,39.61317134267226,0</coordinates></Point></Placemark><Placemark><name>Photo</name><visibility>1</visibility><styleUrl>#Photo</styleUrl><description>OBJECTID: 25
Class: Photo
ThreeSisters: No
Image: https://services7.arcgis.com/wMhfqcPz0lVHG6lf/ArcGIS/rest/services/Mitigation_Editor_Layers_view/FeatureServer/0/25/attachments/16</description><Point><coordinates>-105.31809894075094,39.61357094373173,0</coordinates></Point></Placemark><Placemark><name>Photo</name><visibility>1</visibility><styleUrl>#Photo</styleUrl><description>OBJECTID: 26
Class: Photo
ThreeSisters: No
Image: https://services7.arcgis.com/wMhfqcPz0lVHG6lf/ArcGIS/rest/services/Mitigation_Editor_Layers_view/FeatureServer/0/26/attachments/17</description><Point><coordinates>-105.31837077095592,39.614019222908496,0</coordinates></Point></Placemark><Placemark><name>Photo</name><visibility>1</visibility><styleUrl>#Photo</styleUrl><description>OBJECTID: 27
Class: Photo
ThreeSisters: No
Image: https://services7.arcgis.com/wMhfqcPz0lVHG6lf/ArcGIS/rest/services/Mitigation_Editor_Layers_view/FeatureServer/0/27/attachments/18</description><Point><coordinates>-105.3184875905704,39.61405164628711,0</coordinates></Point></Placemark><Placemark><name>Photo</name><visibility>1</visibility><styleUrl>#Photo</styleUrl><description>OBJECTID: 28
Class: Photo
ThreeSisters: No
Image: https://services7.arcgis.com/wMhfqcPz0lVHG6lf/ArcGIS/rest/services/Mitigation_Editor_Layers_view/FeatureServer/0/28/attachments/19</description><Point><coordinates>-105.3169244375344,39.613649996141284,0</coordinates></Point></Placemark><Placemark><name>Photo</name><visibility>1</visibility><styleUrl>#Photo</styleUrl><description>OBJECTID: 29
Class: Photo
ThreeSisters: No
Image: https://services7.arcgis.com/wMhfqcPz0lVHG6lf/ArcGIS/rest/services/Mitigation_Editor_Layers_view/FeatureServer/0/29/attachments/20</description><Point><coordinates>-105.3167558605865,39.61338212427822,0</coordinates></Point></Placemark><Placemark><name>Photo</name><visibility>1</visibility><styleUrl>#Photo</styleUrl><description>OBJECTID: 30
Class: Photo
ThreeSisters: No
Image: https://services7.arcgis.com/wMhfqcPz0lVHG6lf/ArcGIS/rest/services/Mitigation_Editor_Layers_view/FeatureServer/0/30/attachments/21</description><Point><coordinates>-105.31956496165023,39.617400760464115,0</coordinates></Point></Placemark><Placemark><name>Photo</name><visibility>1</visibility><styleUrl>#Photo</styleUrl><description>OBJECTID: 31
Class: Photo
ThreeSisters: No
Image: https://services7.arcgis.com/wMhfqcPz0lVHG6lf/ArcGIS/rest/services/Mitigation_Editor_Layers_view/FeatureServer/0/31/attachments/22</description><Point><coordinates>-105.31953944320796,39.61721337557634,0</coordinates></Point></Placemark><Placemark><name>Photo</name><visibility>1</visibility><styleUrl>#Photo</styleUrl><description>OBJECTID: 32
Class: Photo
ThreeSisters: No
Image: https://services7.arcgis.com/wMhfqcPz0lVHG6lf/ArcGIS/rest/services/Mitigation_Editor_Layers_view/FeatureServer/0/32/attachments/23</description><Point><coordinates>-105.31952887991852,39.61677926979044,0</coordinates></Point></Placemark><Placemark><name>Photo</name><visibility>1</visibility><styleUrl>#Photo</styleUrl><description>OBJECTID: 33
Class: Photo
ThreeSisters: No
Image: https://services7.arcgis.com/wMhfqcPz0lVHG6lf/ArcGIS/rest/services/Mitigation_Editor_Layers_view/FeatureServer/0/33/attachments/24</description><Point><coordinates>-105.31941334219994,39.61623344602439,0</coordinates></Point></Placemark><Placemark><name>Photo</name><visibility>1</visibility><styleUrl>#Photo</styleUrl><description>OBJECTID: 34
Class: Photo
ThreeSisters: No
Image: https://services7.arcgis.com/wMhfqcPz0lVHG6lf/ArcGIS/rest/services/Mitigation_Editor_Layers_view/FeatureServer/0/34/attachments/25</description><Point><coordinates>-105.319375330887,39.61595553348816,0</coordinates></Point></Placemark><Placemark><name>Photo</name><visibility>1</visibility><styleUrl>#Photo</styleUrl><description>OBJECTID: 35
Class: Photo
ThreeSisters: No
Image: https://services7.arcgis.com/wMhfqcPz0lVHG6lf/ArcGIS/rest/services/Mitigation_Editor_Layers_view/FeatureServer/0/35/attachments/26</description><Point><coordinates>-105.31937476764332,39.61566155419707,0</coordinates></Point></Placemark><Placemark><name>Hazard</name><visibility>1</visibility><styleUrl>#Hazard</styleUrl><description>OBJECTID: 36
Notes: Old dump site
Class: Hazard
ThreeSisters: No
Image: https://services7.arcgis.com/wMhfqcPz0lVHG6lf/ArcGIS/rest/services/Mitigation_Editor_Layers_view/FeatureServer/0/36/attachments/27</description><Point><coordinates>-105.31936084914632,39.61567054475502,0</coordinates></Point></Placemark><Placemark><name>Photo</name><visibility>1</visibility><styleUrl>#Photo</styleUrl><description>OBJECTID: 37
Class: Photo
ThreeSisters: No
Image: https://services7.arcgis.com/wMhfqcPz0lVHG6lf/ArcGIS/rest/services/Mitigation_Editor_Layers_view/FeatureServer/0/37/attachments/28</description><Point><coordinates>-105.31924365044277,39.61554235030492,0</coordinates></Point></Placemark><Placemark><name>Photo</name><visibility>1</visibility><styleUrl>#Photo</styleUrl><description>OBJECTID: 38
Class: Photo
ThreeSisters: No
Image: https://services7.arcgis.com/wMhfqcPz0lVHG6lf/ArcGIS/rest/services/Mitigation_Editor_Layers_view/FeatureServer/0/38/attachments/29</description><Point><coordinates>-105.31919739349384,39.615225938397614,0</coordinates></Point></Placemark><Placemark><name>Photo</name><visibility>1</visibility><styleUrl>#Photo</styleUrl><description>OBJECTID: 39
Class: Photo
ThreeSisters: No
Image: https://services7.arcgis.com/wMhfqcPz0lVHG6lf/ArcGIS/rest/services/Mitigation_Editor_Layers_view/FeatureServer/0/39/attachments/30</description><Point><coordinates>-105.31989780992087,39.615261279422626,0</coordinates></Point></Placemark><Placemark><name>Photo</name><visibility>1</visibility><styleUrl>#Photo</styleUrl><description>OBJECTID: 40
Class: Photo
ThreeSisters: No
Image: https://services7.arcgis.com/wMhfqcPz0lVHG6lf/ArcGIS/rest/services/Mitigation_Editor_Layers_view/FeatureServer/0/40/attachments/31</description><Point><coordinates>-105.32012601074914,39.615165326456264,0</coordinates></Point></Placemark><Placemark><name>Photo</name><visibility>1</visibility><styleUrl>#Photo</styleUrl><description>OBJECTID: 41
Class: Photo
ThreeSisters: No
Image: https://services7.arcgis.com/wMhfqcPz0lVHG6lf/ArcGIS/rest/services/Mitigation_Editor_Layers_view/FeatureServer/0/41/attachments/32</description><Point><coordinates>-105.3203100198553,39.61496402672371,0</coordinates></Point></Placemark><Placemark><name>Photo</name><visibility>1</visibility><styleUrl>#Photo</styleUrl><description>OBJECTID: 42
Class: Photo
ThreeSisters: No
Image: https://services7.arcgis.com/wMhfqcPz0lVHG6lf/ArcGIS/rest/services/Mitigation_Editor_Layers_view/FeatureServer/0/42/attachments/33</description><Point><coordinates>-105.32030707158455,39.61466120339354,0</coordinates></Point></Placemark><Placemark><name>Photo</name><visibility>1</visibility><styleUrl>#Photo</styleUrl><description>OBJECTID: 43
Class: Photo
ThreeSisters: No
Image: https://services7.arcgis.com/wMhfqcPz0lVHG6lf/ArcGIS/rest/services/Mitigation_Editor_Layers_view/FeatureServer/0/43/attachments/34
Image: https://services7.arcgis.com/wMhfqcPz0lVHG6lf/ArcGIS/rest/services/Mitigation_Editor_Layers_view/FeatureServer/0/43/attachments/35</description><Point><coordinates>-105.32006657012509,39.61454361640986,0</coordinates></Point></Placemark><Placemark><name>Photo</name><visibility>1</visibility><styleUrl>#Photo</styleUrl><description>OBJECTID: 44
Notes: All four directions
Class: Photo
ThreeSisters: No
Image: https://services7.arcgis.com/wMhfqcPz0lVHG6lf/ArcGIS/rest/services/Mitigation_Editor_Layers_view/FeatureServer/0/44/attachments/36
Image: https://services7.arcgis.com/wMhfqcPz0lVHG6lf/ArcGIS/rest/services/Mitigation_Editor_Layers_view/FeatureServer/0/44/attachments/37
Image: https://services7.arcgis.com/wMhfqcPz0lVHG6lf/ArcGIS/rest/services/Mitigation_Editor_Layers_view/FeatureServer/0/44/attachments/38
Image: https://services7.arcgis.com/wMhfqcPz0lVHG6lf/ArcGIS/rest/services/Mitigation_Editor_Layers_view/FeatureServer/0/44/attachments/39</description><Point><coordinates>-105.31959807804319,39.61467110754409,0</coordinates></Point></Placemark><Placemark><name>Photo</name><visibility>1</visibility><styleUrl>#Photo</styleUrl><description>OBJECTID: 45
Class: Photo
ThreeSisters: No
Image: https://services7.arcgis.com/wMhfqcPz0lVHG6lf/ArcGIS/rest/services/Mitigation_Editor_Layers_view/FeatureServer/0/45/attachments/40
Image: https://services7.arcgis.com/wMhfqcPz0lVHG6lf/ArcGIS/rest/services/Mitigation_Editor_Layers_view/FeatureServer/0/45/attachments/41</description><Point><coordinates>-105.31867871613026,39.614311977377575,0</coordinates></Point></Placemark><Placemark><name>Photo</name><visibility>1</visibility><styleUrl>#Photo</styleUrl><description>OBJECTID: 46
Class: Photo
ThreeSisters: No
Image: https://services7.arcgis.com/wMhfqcPz0lVHG6lf/ArcGIS/rest/services/Mitigation_Editor_Layers_view/FeatureServer/0/46/attachments/42
Image: https://services7.arcgis.com/wMhfqcPz0lVHG6lf/ArcGIS/rest/services/Mitigation_Editor_Layers_view/FeatureServer/0/46/attachments/43</description><Point><coordinates>-105.31852752337974,39.61422207413303,0</coordinates></Point></Placemark><Placemark><name>Photo</name><visibility>1</visibility><styleUrl>#Photo</styleUrl><description>OBJECTID: 47
Class: Photo
ThreeSisters: No
Image: https://services7.arcgis.com/wMhfqcPz0lVHG6lf/ArcGIS/rest/services/Mitigation_Editor_Layers_view/FeatureServer/0/47/attachments/44
Image: https://services7.arcgis.com/wMhfqcPz0lVHG6lf/ArcGIS/rest/services/Mitigation_Editor_Layers_view/FeatureServer/0/47/attachments/45</description><Point><coordinates>-105.31840519529594,39.614149249886566,0</coordinates></Point></Placemark><Placemark><name>Photo</name><visibility>1</visibility><styleUrl>#Photo</styleUrl><description>OBJECTID: 48
Class: Photo
ThreeSisters: No
Image: https://services7.arcgis.com/wMhfqcPz0lVHG6lf/ArcGIS/rest/services/Mitigation_Editor_Layers_view/FeatureServer/0/48/attachments/46</description><Point><coordinates>-105.3179917681443,39.61384800219406,0</coordinates></Point></Placemark><Placemark><name>Photo</name><visibility>1</visibility><styleUrl>#Photo</styleUrl><description>OBJECTID: 49
Class: Photo
ThreeSisters: No
Image: https://services7.arcgis.com/wMhfqcPz0lVHG6lf/ArcGIS/rest/services/Mitigation_Editor_Layers_view/FeatureServer/0/49/attachments/47</description><Point><coordinates>-105.3176544795012,39.61360085733522,0</coordinates></Point></Placemark><Placemark><name>Photo</name><visibility>1</visibility><styleUrl>#Photo</styleUrl><description>OBJECTID: 50
Class: Photo
ThreeSisters: No
Image: https://services7.arcgis.com/wMhfqcPz0lVHG6lf/ArcGIS/rest/services/Mitigation_Editor_Layers_view/FeatureServer/0/50/attachments/48</description><Point><coordinates>-105.31728951645914,39.613397706025424,0</coordinates></Point></Placemark><Placemark><name>Photo</name><visibility>1</visibility><styleUrl>#Photo</styleUrl><description>OBJECTID: 51
Notes: Three sides
Class: Photo
ThreeSisters: No
Image: https://services7.arcgis.com/wMhfqcPz0lVHG6lf/ArcGIS/rest/services/Mitigation_Editor_Layers_view/FeatureServer/0/51/attachments/49
Image: https://services7.arcgis.com/wMhfqcPz0lVHG6lf/ArcGIS/rest/services/Mitigation_Editor_Layers_view/FeatureServer/0/51/attachments/50
Image: https://services7.arcgis.com/wMhfqcPz0lVHG6lf/ArcGIS/rest/services/Mitigation_Editor_Layers_view/FeatureServer/0/51/attachments/51</description><Point><coordinates>-105.31694865970773,39.613781853529865,0</coordinates></Point></Placemark><Placemark><name>Photo</name><visibility>1</visibility><styleUrl>#Photo</styleUrl><description>OBJECTID: 52
Class: Photo
ThreeSisters: No
Image: https://services7.arcgis.com/wMhfqcPz0lVHG6lf/ArcGIS/rest/services/Mitigation_Editor_Layers_view/FeatureServer/0/52/attachments/52</description><Point><coordinates>-105.31712068708464,39.61396110119797,0</coordinates></Point></Placemark><Placemark><name>Photo</name><visibility>1</visibility><styleUrl>#Photo</styleUrl><description>OBJECTID: 53
Class: Photo
ThreeSisters: No
Image: https://services7.arcgis.com/wMhfqcPz0lVHG6lf/ArcGIS/rest/services/Mitigation_Editor_Layers_view/FeatureServer/0/53/attachments/53</description><Point><coordinates>-105.31721633071294,39.61401085634152,0</coordinates></Point></Placemark><Placemark><name>Photo</name><visibility>1</visibility><styleUrl>#Photo</styleUrl><description>OBJECTID: 54
Class: Photo
ThreeSisters: No
Image: https://services7.arcgis.com/wMhfqcPz0lVHG6lf/ArcGIS/rest/services/Mitigation_Editor_Layers_view/FeatureServer/0/54/attachments/54</description><Point><coordinates>-105.31768068066307,39.61452741694803,0</coordinates></Point></Placemark><Placemark><name>Photo</name><visibility>1</visibility><styleUrl>#Photo</styleUrl><description>OBJECTID: 55
Class: Photo
ThreeSisters: No
Image: https://services7.arcgis.com/wMhfqcPz0lVHG6lf/ArcGIS/rest/services/Mitigation_Editor_Layers_view/FeatureServer/0/55/attachments/55</description><Point><coordinates>-105.31788608045281,39.61492472722332,0</coordinates></Point></Placemark><Placemark><name>Photo</name><visibility>1</visibility><styleUrl>#Photo</styleUrl><description>OBJECTID: 56
Class: Photo
ThreeSisters: No
Image: https://services7.arcgis.com/wMhfqcPz0lVHG6lf/ArcGIS/rest/services/Mitigation_Editor_Layers_view/FeatureServer/0/56/attachments/56</description><Point><coordinates>-105.3182119488137,39.61519469406537,0</coordinates></Point></Placemark><Placemark><name>Photo</name><visibility>1</visibility><styleUrl>#Photo</styleUrl><description>OBJECTID: 57
Class: Photo
ThreeSisters: No
Image: https://services7.arcgis.com/wMhfqcPz0lVHG6lf/ArcGIS/rest/services/Mitigation_Editor_Layers_view/FeatureServer/0/57/attachments/57
Image: https://services7.arcgis.com/wMhfqcPz0lVHG6lf/ArcGIS/rest/services/Mitigation_Editor_Layers_view/FeatureServer/0/57/attachments/58</description><Point><coordinates>-105.31840515397343,39.615472711381685,0</coordinates></Point></Placemark><Placemark><name>Photo</name><visibility>1</visibility><styleUrl>#Photo</styleUrl><description>OBJECTID: 58
Class: Photo
ThreeSisters: No
Image: https://services7.arcgis.com/wMhfqcPz0lVHG6lf/ArcGIS/rest/services/Mitigation_Editor_Layers_view/FeatureServer/0/58/attachments/59
Image: https://services7.arcgis.com/wMhfqcPz0lVHG6lf/ArcGIS/rest/services/Mitigation_Editor_Layers_view/FeatureServer/0/58/attachments/60</description><Point><coordinates>-105.31870906750876,39.61603163247137,0</coordinates></Point></Placemark><Placemark><name>Photo</name><visibility>1</visibility><styleUrl>#Photo</styleUrl><description>OBJECTID: 59
Class: Photo
ThreeSisters: No
Image: https://services7.arcgis.com/wMhfqcPz0lVHG6lf/ArcGIS/rest/services/Mitigation_Editor_Layers_view/FeatureServer/0/59/attachments/61</description><Point><coordinates>-105.31868930187757,39.616289985988736,0</coordinates></Point></Placemark><Placemark><name>Photo</name><visibility>1</visibility><styleUrl>#Photo</styleUrl><description>OBJECTID: 60
Class: Photo
ThreeSisters: No
Image: https://services7.arcgis.com/wMhfqcPz0lVHG6lf/ArcGIS/rest/services/Mitigation_Editor_Layers_view/FeatureServer/0/60/attachments/62
Image: https://services7.arcgis.com/wMhfqcPz0lVHG6lf/ArcGIS/rest/services/Mitigation_Editor_Layers_view/FeatureServer/0/60/attachments/63</description><Point><coordinates>-105.31908733190525,39.6165138790883,0</coordinates></Point></Placemark><Placemark><name>Photo</name><visibility>1</visibility><styleUrl>#Photo</styleUrl><description>OBJECTID: 61
Class: Photo
ThreeSisters: No
Image: https://services7.arcgis.com/wMhfqcPz0lVHG6lf/ArcGIS/rest/services/Mitigation_Editor_Layers_view/FeatureServer/0/61/attachments/64</description><Point><coordinates>-105.31926081994278,39.616819913477634,0</coordinates></Point></Placemark><Placemark><name>Photo</name><visibility>1</visibility><styleUrl>#Photo</styleUrl><description>OBJECTID: 62
Class: Photo
ThreeSisters: No
Image: https://services7.arcgis.com/wMhfqcPz0lVHG6lf/ArcGIS/rest/services/Mitigation_Editor_Layers_view/FeatureServer/0/62/attachments/65</description><Point><coordinates>-105.3193729844875,39.6172407604529,0</coordinates></Point></Placemark><Placemark><name>Photo</name><visibility>1</visibility><styleUrl>#Photo</styleUrl><description>OBJECTID: 63
Class: Photo
ThreeSisters: No
Image: https://services7.arcgis.com/wMhfqcPz0lVHG6lf/ArcGIS/rest/services/Mitigation_Editor_Layers_view/FeatureServer/0/63/attachments/66</description><Point><coordinates>-105.32011896705899,39.61840648711057,0</coordinates></Point></Placemark><Placemark><name>Photo</name><visibility>1</visibility><styleUrl>#Photo</styleUrl><description>OBJECTID: 64
Class: Photo
ThreeSisters: No
Image: https://services7.arcgis.com/wMhfqcPz0lVHG6lf/ArcGIS/rest/services/Mitigation_Editor_Layers_view/FeatureServer/0/64/attachments/67</description><Point><coordinates>-105.32010110944945,39.61853074720185,0</coordinates></Point></Placemark><Placemark><name>Photo</name><visibility>1</visibility><styleUrl>#Photo</styleUrl><description>OBJECTID: 65
Class: Photo
ThreeSisters: No
Image: https://services7.arcgis.com/wMhfqcPz0lVHG6lf/ArcGIS/rest/services/Mitigation_Editor_Layers_view/FeatureServer/0/65/attachments/68</description><Point><coordinates>-105.32015410016974,39.61862272908705,0</coordinates></Point></Placemark><Placemark><name>Photo</name><visibility>1</visibility><styleUrl>#Photo</styleUrl><description>OBJECTID: 66
Notes: Aspen restoration
Class: Photo
ThreeSisters: No
Image: https://services7.arcgis.com/wMhfqcPz0lVHG6lf/ArcGIS/rest/services/Mitigation_Editor_Layers_view/FeatureServer/0/66/attachments/69</description><Point><coordinates>-105.32072194861703,39.618650865585494,0</coordinates></Point></Placemark><Placemark><name>Photo</name><visibility>1</visibility><styleUrl>#Photo</styleUrl><description>OBJECTID: 67
Class: Photo
ThreeSisters: No
Image: https://services7.arcgis.com/wMhfqcPz0lVHG6lf/ArcGIS/rest/services/Mitigation_Editor_Layers_view/FeatureServer/0/67/attachments/70</description><Point><coordinates>-105.32235307537397,39.619158585526584,0</coordinates></Point></Placemark><Placemark><name>Photo</name><visibility>1</visibility><styleUrl>#Photo</styleUrl><description>OBJECTID: 68
Class: Photo
ThreeSisters: No
Image: https://services7.arcgis.com/wMhfqcPz0lVHG6lf/ArcGIS/rest/services/Mitigation_Editor_Layers_view/FeatureServer/0/68/attachments/71
Image: https://services7.arcgis.com/wMhfqcPz0lVHG6lf/ArcGIS/rest/services/Mitigation_Editor_Layers_view/FeatureServer/0/68/attachments/72</description><Point><coordinates>-105.3226756783588,39.61884394361581,0</coordinates></Point></Placemark><Placemark><name>Photo</name><visibility>1</visibility><styleUrl>#Photo</styleUrl><description>OBJECTID: 69
Class: Photo
ThreeSisters: No
Image: https://services7.arcgis.com/wMhfqcPz0lVHG6lf/ArcGIS/rest/services/Mitigation_Editor_Layers_view/FeatureServer/0/69/attachments/73
Image: https://services7.arcgis.com/wMhfqcPz0lVHG6lf/ArcGIS/rest/services/Mitigation_Editor_Layers_view/FeatureServer/0/69/attachments/74</description><Point><coordinates>-105.32249509003724,39.61850916023433,0</coordinates></Point></Placemark><Placemark><name>Photo</name><visibility>1</visibility><styleUrl>#Photo</styleUrl><description>OBJECTID: 70
Class: Photo
ThreeSisters: No
Image: https://services7.arcgis.com/wMhfqcPz0lVHG6lf/ArcGIS/rest/services/Mitigation_Editor_Layers_view/FeatureServer/0/70/attachments/75</description><Point><coordinates>-105.32223601950255,39.618350126022065,0</coordinates></Point></Placemark><Placemark><name>Photo</name><visibility>1</visibility><styleUrl>#Photo</styleUrl><description>OBJECTID: 71
Class: Photo
ThreeSisters: No
Image: https://services7.arcgis.com/wMhfqcPz0lVHG6lf/ArcGIS/rest/services/Mitigation_Editor_Layers_view/FeatureServer/0/71/attachments/76
Image: https://services7.arcgis.com/wMhfqcPz0lVHG6lf/ArcGIS/rest/services/Mitigation_Editor_Layers_view/FeatureServer/0/71/attachments/77</description><Point><coordinates>-105.32189617964404,39.61827103330939,0</coordinates></Point></Placemark><Placemark><name>Photo</name><visibility>1</visibility><styleUrl>#Photo</styleUrl><description>OBJECTID: 72
Class: Photo
ThreeSisters: No
Image: https://services7.arcgis.com/wMhfqcPz0lVHG6lf/ArcGIS/rest/services/Mitigation_Editor_Layers_view/FeatureServer/0/72/attachments/78</description><Point><coordinates>-105.32142174251156,39.61820417128671,0</coordinates></Point></Placemark><Placemark><name>Photo</name><visibility>1</visibility><styleUrl>#Photo</styleUrl><description>OBJECTID: 73
Class: Photo
ThreeSisters: No
Image: https://services7.arcgis.com/wMhfqcPz0lVHG6lf/ArcGIS/rest/services/Mitigation_Editor_Layers_view/FeatureServer/0/73/attachments/79</description><Point><coordinates>-105.3204970859284,39.61823451745241,0</coordinates></Point></Placemark><Placemark><name>Photo</name><visibility>1</visibility><styleUrl>#Photo</styleUrl><description>OBJECTID: 74
Class: Photo
ThreeSisters: No
Image: https://services7.arcgis.com/wMhfqcPz0lVHG6lf/ArcGIS/rest/services/Mitigation_Editor_Layers_view/FeatureServer/0/74/attachments/80</description><Point><coordinates>-105.32010491381469,39.618219960234946,0</coordinates></Point></Placemark><Placemark><name>Photo</name><visibility>1</visibility><styleUrl>#Photo</styleUrl><description>OBJECTID: 75
Class: Photo
ThreeSisters: No
Image: https://services7.arcgis.com/wMhfqcPz0lVHG6lf/ArcGIS/rest/services/Mitigation_Editor_Layers_view/FeatureServer/0/75/attachments/81</description><Point><coordinates>-105.32051379998255,39.61933001176778,0</coordinates></Point></Placemark><Placemark><name>Photo</name><visibility>1</visibility><styleUrl>#Photo</styleUrl><description>OBJECTID: 76
Class: Photo
ThreeSisters: No
Image: https://services7.arcgis.com/wMhfqcPz0lVHG6lf/ArcGIS/rest/services/Mitigation_Editor_Layers_view/FeatureServer/0/76/attachments/82</description><Point><coordinates>-105.32073134679153,39.61978980325393,0</coordinates></Point></Placemark><Placemark><name>Photo</name><visibility>1</visibility><styleUrl>#Photo</styleUrl><description>OBJECTID: 77
Class: Photo
ThreeSisters: No
Image: https://services7.arcgis.com/wMhfqcPz0lVHG6lf/ArcGIS/rest/services/Mitigation_Editor_Layers_view/FeatureServer/0/77/attachments/83</description><Point><coordinates>-105.32103336667828,39.619894863680614,0</coordinates></Point></Placemark><Placemark><name>Photo</name><visibility>1</visibility><styleUrl>#Photo</styleUrl><description>OBJECTID: 78
Class: Photo
ThreeSisters: No
Image: https://services7.arcgis.com/wMhfqcPz0lVHG6lf/ArcGIS/rest/services/Mitigation_Editor_Layers_view/FeatureServer/0/78/attachments/84</description><Point><coordinates>-105.32126681726103,39.61989783013431,0</coordinates></Point></Placemark><Placemark><name>Photo</name><visibility>1</visibility><styleUrl>#Photo</styleUrl><description>OBJECTID: 79
Class: Photo
ThreeSisters: No
Image: https://services7.arcgis.com/wMhfqcPz0lVHG6lf/ArcGIS/rest/services/Mitigation_Editor_Layers_view/FeatureServer/0/79/attachments/85</description><Point><coordinates>-105.32151807245273,39.61979858222604,0</coordinates></Point></Placemark><Placemark><name>Photo</name><visibility>1</visibility><styleUrl>#Photo</styleUrl><description>OBJECTID: 80
Class: Photo
ThreeSisters: No
Image: https://services7.arcgis.com/wMhfqcPz0lVHG6lf/ArcGIS/rest/services/Mitigation_Editor_Layers_view/FeatureServer/0/80/attachments/86</description><Point><coordinates>-105.3218697062926,39.61965980417055,0</coordinates></Point></Placemark><Placemark><name>Photo</name><visibility>1</visibility><styleUrl>#Photo</styleUrl><description>OBJECTID: 81
Class: Photo
ThreeSisters: No
Image: https://services7.arcgis.com/wMhfqcPz0lVHG6lf/ArcGIS/rest/services/Mitigation_Editor_Layers_view/FeatureServer/0/81/attachments/87</description><Point><coordinates>-105.32228929139553,39.6194677947408,0</coordinates></Point></Placemark><Placemark><name>Photo</name><visibility>1</visibility><styleUrl>#Photo</styleUrl><description>OBJECTID: 82
Class: Photo
ThreeSisters: No
Image: https://services7.arcgis.com/wMhfqcPz0lVHG6lf/ArcGIS/rest/services/Mitigation_Editor_Layers_view/FeatureServer/0/82/attachments/88</description><Point><coordinates>-105.32126178040726,39.61948075324728,0</coordinates></Point></Placemark><Placemark><name>Photo</name><visibility>1</visibility><styleUrl>#Photo</styleUrl><description>OBJECTID: 83
Class: Photo
ThreeSisters: No
Image: https://services7.arcgis.com/wMhfqcPz0lVHG6lf/ArcGIS/rest/services/Mitigation_Editor_Layers_view/FeatureServer/0/83/attachments/89</description><Point><coordinates>-105.32061712869812,39.61952928448267,0</coordinates></Point></Placemark><Placemark><name>Photo</name><visibility>1</visibility><styleUrl>#Photo</styleUrl><description>OBJECTID: 84
Class: Photo
ThreeSisters: No
Image: https://services7.arcgis.com/wMhfqcPz0lVHG6lf/ArcGIS/rest/services/Mitigation_Editor_Layers_view/FeatureServer/0/84/attachments/90</description><Point><coordinates>-105.31967921747291,39.61922644168252,0</coordinates></Point></Placemark><Placemark><name>Photo</name><visibility>1</visibility><styleUrl>#Photo</styleUrl><description>OBJECTID: 85
Class: Photo
ThreeSisters: No
Image: https://services7.arcgis.com/wMhfqcPz0lVHG6lf/ArcGIS/rest/services/Mitigation_Editor_Layers_view/FeatureServer/0/85/attachments/91</description><Point><coordinates>-105.32048168610946,39.61908675945503,0</coordinates></Point></Placemark></Folder></Document></kml>